{"fetched_at":"2026-07-23T07:05:22.094Z","source":"https://celestrak.org/NORAD/elements/gp.php?GROUP=qianfan&FORMAT=JSON","constellation":"qianfan","records":[{"OBJECT_NAME":"QIANFAN-161","OBJECT_ID":"2026-108S","EPOCH":"2026-07-22T22:10:32.494080","CLASSIFICATION_TYPE":"U","MEAN_MOTION":13.68438286,"ECCENTRICITY":0.00187411,"INCLINATION":89.0115,"RA_OF_ASC_NODE":18.3844,"ARG_OF_PERICENTER":8.6213,"MEAN_ANOMALY":351.5266,"EPHEMERIS_TYPE":0,"NORAD_CAT_ID":69120,"ELEMENT_SET_NO":999,"REV_AT_EPOCH":931,"BSTAR":0.000034317142,"MEAN_MOTION_DOT":4.2e-7,"MEAN_MOTION_DDOT":0},{"OBJECT_NAME":"QIANFAN-162","OBJECT_ID":"2026-108T","EPOCH":"2026-07-22T21:15:35.167680","CLASSIFICATION_TYPE":"U","MEAN_MOTION":13.568112,"ECCENTRICITY":0.00196735,"INCLINATION":89.0102,"RA_OF_ASC_NODE":18.4122,"ARG_OF_PERICENTER":8.0861,"MEAN_ANOMALY":352.0606,"EPHEMERIS_TYPE":0,"NORAD_CAT_ID":69121,"ELEMENT_SET_NO":999,"REV_AT_EPOCH":928,"BSTAR":-2.97393,"MEAN_MOTION_DOT":-0.01978035,"MEAN_MOTION_DDOT":0},{"OBJECT_NAME":"QIANFAN-163","OBJECT_ID":"2026-121A","EPOCH":"2026-07-08T23:20:22.023168","CLASSIFICATION_TYPE":"U","MEAN_MOTION":13.53894414,"ECCENTRICITY":0.00204807,"INCLINATION":89.0049,"RA_OF_ASC_NODE":298.3591,"ARG_OF_PERICENTER":118.563,"MEAN_ANOMALY":241.7588,"EPHEMERIS_TYPE":0,"NORAD_CAT_ID":69325,"ELEMENT_SET_NO":999,"REV_AT_EPOCH":511,"BSTAR":-0.000006639878,"MEAN_MOTION_DOT":8e-8,"MEAN_MOTION_DDOT":0},{"OBJECT_NAME":"QIANFAN-164","OBJECT_ID":"2026-121B","EPOCH":"2026-07-13T16:07:09.757344","CLASSIFICATION_TYPE":"U","MEAN_MOTION":13.49695561,"ECCENTRICITY":0.00228451,"INCLINATION":89.0183,"RA_OF_ASC_NODE":297.8725,"ARG_OF_PERICENTER":112.6356,"MEAN_ANOMALY":247.7213,"EPHEMERIS_TYPE":0,"NORAD_CAT_ID":69326,"ELEMENT_SET_NO":999,"REV_AT_EPOCH":574,"BSTAR":0.000078131509,"MEAN_MOTION_DOT":6.2e-7,"MEAN_MOTION_DDOT":0},{"OBJECT_NAME":"QIANFAN-165","OBJECT_ID":"2026-124A","EPOCH":"2026-07-22T13:43:45.547680","CLASSIFICATION_TYPE":"U","MEAN_MOTION":13.79295686,"ECCENTRICITY":0.00087644,"INCLINATION":89.0009,"RA_OF_ASC_NODE":358.1117,"ARG_OF_PERICENTER":59.6176,"MEAN_ANOMALY":300.5856,"EPHEMERIS_TYPE":0,"NORAD_CAT_ID":69382,"ELEMENT_SET_NO":999,"REV_AT_EPOCH":678,"BSTAR":-2.0206289,"MEAN_MOTION_DOT":-0.01939244,"MEAN_MOTION_DDOT":0},{"OBJECT_NAME":"QIANFAN-166","OBJECT_ID":"2026-124B","EPOCH":"2026-07-22T12:41:07.259136","CLASSIFICATION_TYPE":"U","MEAN_MOTION":13.81221163,"ECCENTRICITY":0.00125688,"INCLINATION":89.0009,"RA_OF_ASC_NODE":358.1072,"ARG_OF_PERICENTER":49.3916,"MEAN_ANOMALY":310.8343,"EPHEMERIS_TYPE":0,"NORAD_CAT_ID":69383,"ELEMENT_SET_NO":999,"REV_AT_EPOCH":678,"BSTAR":-2.1212359,"MEAN_MOTION_DOT":-0.02092325,"MEAN_MOTION_DDOT":0},{"OBJECT_NAME":"QIANFAN-167","OBJECT_ID":"2026-124C","EPOCH":"2026-07-22T10:26:10.983840","CLASSIFICATION_TYPE":"U","MEAN_MOTION":13.76854481,"ECCENTRICITY":0.00060727,"INCLINATION":89.0004,"RA_OF_ASC_NODE":358.1307,"ARG_OF_PERICENTER":95.8033,"MEAN_ANOMALY":264.3825,"EPHEMERIS_TYPE":0,"NORAD_CAT_ID":69384,"ELEMENT_SET_NO":999,"REV_AT_EPOCH":676,"BSTAR":-2.2527899,"MEAN_MOTION_DOT":-0.02066462,"MEAN_MOTION_DDOT":0},{"OBJECT_NAME":"QIANFAN-168","OBJECT_ID":"2026-124D","EPOCH":"2026-07-22T11:13:50.887776","CLASSIFICATION_TYPE":"U","MEAN_MOTION":13.77420307,"ECCENTRICITY":0.00070974,"INCLINATION":89.0004,"RA_OF_ASC_NODE":358.1149,"ARG_OF_PERICENTER":60.8643,"MEAN_ANOMALY":299.3233,"EPHEMERIS_TYPE":0,"NORAD_CAT_ID":69385,"ELEMENT_SET_NO":999,"REV_AT_EPOCH":677,"BSTAR":-2.1408907,"MEAN_MOTION_DOT":-0.01987802,"MEAN_MOTION_DDOT":0},{"OBJECT_NAME":"QIANFAN-169","OBJECT_ID":"2026-124E","EPOCH":"2026-07-22T12:32:53.214432","CLASSIFICATION_TYPE":"U","MEAN_MOTION":13.77705523,"ECCENTRICITY":0.00086265,"INCLINATION":89.0003,"RA_OF_ASC_NODE":358.1048,"ARG_OF_PERICENTER":74.9501,"MEAN_ANOMALY":285.2619,"EPHEMERIS_TYPE":0,"NORAD_CAT_ID":69386,"ELEMENT_SET_NO":999,"REV_AT_EPOCH":678,"BSTAR":-2.1817555,"MEAN_MOTION_DOT":-0.02032494,"MEAN_MOTION_DDOT":0},{"OBJECT_NAME":"QIANFAN-170","OBJECT_ID":"2026-124F","EPOCH":"2026-07-22T13:05:08.600352","CLASSIFICATION_TYPE":"U","MEAN_MOTION":13.82829986,"ECCENTRICITY":0.00116417,"INCLINATION":89.0004,"RA_OF_ASC_NODE":358.0892,"ARG_OF_PERICENTER":61.4572,"MEAN_ANOMALY":298.7768,"EPHEMERIS_TYPE":0,"NORAD_CAT_ID":69387,"ELEMENT_SET_NO":999,"REV_AT_EPOCH":679,"BSTAR":-1.9130044,"MEAN_MOTION_DOT":-0.01948271,"MEAN_MOTION_DDOT":0},{"OBJECT_NAME":"QIANFAN-171","OBJECT_ID":"2026-124G","EPOCH":"2026-07-22T12:50:05.288352","CLASSIFICATION_TYPE":"U","MEAN_MOTION":13.81385149,"ECCENTRICITY":0.00120447,"INCLINATION":89.0014,"RA_OF_ASC_NODE":358.0886,"ARG_OF_PERICENTER":66.0441,"MEAN_ANOMALY":294.1988,"EPHEMERIS_TYPE":0,"NORAD_CAT_ID":69388,"ELEMENT_SET_NO":999,"REV_AT_EPOCH":679,"BSTAR":-1.9691328,"MEAN_MOTION_DOT":-0.01956651,"MEAN_MOTION_DDOT":0},{"OBJECT_NAME":"QIANFAN-172","OBJECT_ID":"2026-124H","EPOCH":"2026-07-22T12:40:39.121248","CLASSIFICATION_TYPE":"U","MEAN_MOTION":13.83980134,"ECCENTRICITY":0.00097986,"INCLINATION":89.0011,"RA_OF_ASC_NODE":358.0873,"ARG_OF_PERICENTER":48.5727,"MEAN_ANOMALY":311.6283,"EPHEMERIS_TYPE":0,"NORAD_CAT_ID":69389,"ELEMENT_SET_NO":999,"REV_AT_EPOCH":679,"BSTAR":-1.989306,"MEAN_MOTION_DOT":-0.02057701,"MEAN_MOTION_DDOT":0},{"OBJECT_NAME":"QIANFAN-173","OBJECT_ID":"2026-124J","EPOCH":"2026-07-22T12:21:46.975392","CLASSIFICATION_TYPE":"U","MEAN_MOTION":13.83601162,"ECCENTRICITY":0.00119375,"INCLINATION":89.0009,"RA_OF_ASC_NODE":358.0864,"ARG_OF_PERICENTER":41.5808,"MEAN_ANOMALY":318.6267,"EPHEMERIS_TYPE":0,"NORAD_CAT_ID":69390,"ELEMENT_SET_NO":999,"REV_AT_EPOCH":679,"BSTAR":-2.0666783,"MEAN_MOTION_DOT":-0.02119881,"MEAN_MOTION_DDOT":0},{"OBJECT_NAME":"QIANFAN-174","OBJECT_ID":"2026-124K","EPOCH":"2026-07-22T12:54:50.028192","CLASSIFICATION_TYPE":"U","MEAN_MOTION":13.87195297,"ECCENTRICITY":0.00046723,"INCLINATION":89.0006,"RA_OF_ASC_NODE":358.0714,"ARG_OF_PERICENTER":34.5148,"MEAN_ANOMALY":325.6326,"EPHEMERIS_TYPE":0,"NORAD_CAT_ID":69391,"ELEMENT_SET_NO":999,"REV_AT_EPOCH":679,"BSTAR":-1.8588656,"MEAN_MOTION_DOT":-0.02032089,"MEAN_MOTION_DDOT":0},{"OBJECT_NAME":"QIANFAN-175","OBJECT_ID":"2026-124L","EPOCH":"2026-07-22T11:41:47.107392","CLASSIFICATION_TYPE":"U","MEAN_MOTION":13.84438395,"ECCENTRICITY":0.000948,"INCLINATION":89.0017,"RA_OF_ASC_NODE":358.0809,"ARG_OF_PERICENTER":47.5901,"MEAN_ANOMALY":312.607,"EPHEMERIS_TYPE":0,"NORAD_CAT_ID":69392,"ELEMENT_SET_NO":999,"REV_AT_EPOCH":679,"BSTAR":-2.011894,"MEAN_MOTION_DOT":-0.02094568,"MEAN_MOTION_DDOT":0},{"OBJECT_NAME":"QIANFAN-176","OBJECT_ID":"2026-124M","EPOCH":"2026-07-22T13:43:45.841440","CLASSIFICATION_TYPE":"U","MEAN_MOTION":13.8146452,"ECCENTRICITY":0.00140396,"INCLINATION":89.0002,"RA_OF_ASC_NODE":358.0741,"ARG_OF_PERICENTER":49.0995,"MEAN_ANOMALY":311.1387,"EPHEMERIS_TYPE":0,"NORAD_CAT_ID":69393,"ELEMENT_SET_NO":999,"REV_AT_EPOCH":679,"BSTAR":-2.0027055,"MEAN_MOTION_DOT":-0.01990738,"MEAN_MOTION_DDOT":0}]}
