QIANFAN-161             
1 69120U 26108S   26203.92398720  .00000042  00000+0  34317-4 0  9995
2 69120  89.0115  18.3844 0018741   8.6213 351.5266 13.68438286  9313
QIANFAN-162             
1 69121U 26108T   26203.88582370 -.01978035  00000+0 -29739+1 0  9994
2 69121  89.0102  18.4122 0019673   8.0861 352.0606 13.56811200  9286
QIANFAN-163             
1 69325U 26121A   26189.97247712  .00000008  00000+0 -66399-5 0  9998
2 69325  89.0049 298.3591 0020480 118.5630 241.7588 13.53894414  5116
QIANFAN-164             
1 69326U 26121B   26194.67164071  .00000062  00000+0  78132-4 0  9994
2 69326  89.0183 297.8725 0022845 112.6356 247.7213 13.49695561  5743
QIANFAN-165             
1 69382U 26124A   26203.57205495 -.01939244  00000+0 -20206+1 0  9996
2 69382  89.0009 358.1117 0008764  59.6176 300.5856 13.79295686  6785
QIANFAN-166             
1 69383U 26124B   26203.52855624 -.02092325  00000+0 -21212+1 0  9996
2 69383  89.0009 358.1072 0012568  49.3916 310.8343 13.81221163  6788
QIANFAN-167             
1 69384U 26124C   26203.43484935 -.02066462  00000+0 -22528+1 0  9994
2 69384  89.0004 358.1307 0006072  95.8033 264.3825 13.76854481  6769
QIANFAN-168             
1 69385U 26124D   26203.46795009 -.01987802  00000+0 -21409+1 0  9991
2 69385  89.0004 358.1149 0007097  60.8643 299.3233 13.77420307  6770
QIANFAN-169             
1 69386U 26124E   26203.52283813 -.02032494  00000+0 -21818+1 0  9997
2 69386  89.0003 358.1048 0008626  74.9501 285.2619 13.77705523  6785
QIANFAN-170             
1 69387U 26124F   26203.54523843 -.01948271  00000+0 -19130+1 0  9992
2 69387  89.0004 358.0892 0011641  61.4572 298.7768 13.82829986  6794
QIANFAN-171             
1 69388U 26124G   26203.53478343 -.01956651  00000+0 -19691+1 0  9999
2 69388  89.0014 358.0886 0012044  66.0441 294.1988 13.81385149  6794
QIANFAN-172             
1 69389U 26124H   26203.52823057 -.02057701  00000+0 -19893+1 0  9998
2 69389  89.0011 358.0873 0009798  48.5727 311.6283 13.83980134  6792
QIANFAN-173             
1 69390U 26124J   26203.51512703 -.02119881  00000+0 -20667+1 0  9991
2 69390  89.0009 358.0864 0011937  41.5808 318.6267 13.83601162  6792
QIANFAN-174             
1 69391U 26124K   26203.53807903 -.02032089  00000+0 -18589+1 0  9997
2 69391  89.0006 358.0714 0004672  34.5148 325.6326 13.87195297  6796
QIANFAN-175             
1 69392U 26124L   26203.48735078 -.02094568  00000+0 -20119+1 0  9997
2 69392  89.0017 358.0809 0009480  47.5901 312.6070 13.84438395  6795
QIANFAN-176             
1 69393U 26124M   26203.57205835 -.01990738  00000+0 -20027+1 0  9992
2 69393  89.0002 358.0741 0014039  49.0995 311.1387 13.81464520  6792
